IRIDIUM 144             
1 43249U 18030A   25078.61892143  .00000110  00000+0  32353-4 0  9991
2 43249  86.3943 120.4699 0002110  92.5268 267.6169 14.34214874364989
IRIDIUM 149             
1 43250U 18030B   25078.62526957  .00000675  00000+0  23404-3 0  9993
2 43250  86.3942 120.4395 0002056  91.8191 268.3240 14.34219872365004
IRIDIUM 157             
1 43251U 18030C   25078.64429846  .00000657  00000+0  22735-3 0  9991
2 43251  86.3945 120.4748 0002400  99.0554 261.0914 14.34219791364980
IRIDIUM 140             
1 43252U 18030D   25078.66332554  .00000497  00000+0  17047-3 0  9995
2 43252  86.3942 120.4806 0002142  89.6849 270.4592 14.34219014365040
IRIDIUM 145             
1 43253U 18030E   25078.65064422  .00000683  00000+0  23673-3 0  9990
2 43253  86.3943 120.4589 0001899  88.5615 271.5798 14.34222962364974
IRIDIUM 146             
1 43254U 18030F   25078.63161254  .00000373  00000+0  12620-3 0  9996
2 43254  86.3943 120.4810 0001863  88.2201 271.9209 14.34218532364981
IRIDIUM 148             
1 43255U 18030G   25078.59990076  .00000247  00000+0  81180-4 0  9992
2 43255  86.3944 120.5300 0002115  97.4387 262.7049 14.34217629365017
IRIDIUM 142             
1 43256U 18030H   25078.63795820  .00000669  00000+0  23195-3 0  9997
2 43256  86.3940 120.4196 0001765  93.3256 266.8142 14.34220869364980
